IRIDIUM 180             
1 43922U 19002A   26085.94864572  .00000247  00000+0  81294-4 0  9998
2 43922  86.4005  27.9536 0002219  82.4816 277.6632 14.34217106377201
IRIDIUM 176             
1 43923U 19002B   26085.78213789  .00000513  00000+0  77395-4 0  9992
2 43923  86.6127  27.9773 0002620  86.1631 273.9886 14.72246049387126
IRIDIUM 168             
1 43924U 19002C   26085.87253514  .00000088  00000+0  24388-4 0  9994
2 43924  86.4007  28.0605 0002150  85.0689 275.0752 14.34217250377176
IRIDIUM 173             
1 43925U 19002D   26085.79008055  .00000310  00000+0  10377-3 0  9994
2 43925  86.4000  27.9868 0002079  85.6469 274.4964 14.34217741377141
IRIDIUM 169             
1 43926U 19002E   26085.96776695  .00000356  00000+0  11000-3 0  9990
2 43926  86.4196  59.5554 0001787 103.7844 256.3553 14.38607217378403
IRIDIUM 172             
1 43927U 19002F   26085.92327530  .00000139  00000+0  42486-4 0  9999
2 43927  86.4002  27.9390 0002222  81.1756 278.9691 14.34217696377173
IRIDIUM 175             
1 43928U 19002G   26085.37419760  .00000351  00000+0  97863-4 0  9991
2 43928  86.4535 325.1565 0004841 116.9741 243.1955 14.43578954387032
IRIDIUM 171             
1 43929U 19002H   26085.90424620  .00000245  00000+0  80278-4 0  9996
2 43929  86.4009  28.2440 0002296  90.0414 270.1045 14.34217028377168
IRIDIUM 170             
1 43930U 19002J   26085.92425619  .00001113  00000+0  17260-3 0  9994
2 43930  86.6126  27.9216 0002494  82.6434 277.5066 14.72245080387153
IRIDIUM 167             
1 43931U 19002K   26085.89790509  .00000032  00000+0  44409-5 0  9990
2 43931  86.4007  27.9715 0002249  94.7830 265.3622 14.34217406377168
IRIDIUM 181             
1 56726U 23068S   26085.95112244  .00000168  00000+0  44001-4 0  9991
2 56726  86.4445  91.1751 0002574  85.8598 274.2897 14.43311877150570
IRIDIUM 177             
1 56727U 23068T   26085.51063674  .00000995  00000+0  12749-3 0  9997
2 56727  86.2012   8.0433 0002192  84.4998 275.6473 14.80211484154133
IRIDIUM 174             
1 56728U 23068U   26085.91188464  .00001133  00000+0  17583-3 0  9993
2 56728  86.6125  28.0652 0002744  77.4261 282.7263 14.72256567153919
