[
    {
      "OBJECT_NAME": "IRIDIUM 180",
      "OBJECT_ID": "2019-002A",
      "EPOCH": "2026-03-26T22:46:02.990208",
      "MEAN_MOTION": 14.34217106,
      "ECCENTRICITY": 0.00022197,
      "INCLINATION": 86.4005,
      "RA_OF_ASC_NODE": 27.9536,
      "ARG_OF_PERICENTER": 82.4816,
      "MEAN_ANOMALY": 277.6632,
      "EPHEMERIS_TYPE": 0,
      "CLASSIFICATION_TYPE": "U",
      "NORAD_CAT_ID": 43922,
      "ELEMENT_SET_NO": 999,
      "REV_AT_EPOCH": 37720,
      "BSTAR": 0.000081293849,
      "MEAN_MOTION_DOT": 0.00000247,
      "MEAN_MOTION_DDOT": 0
    },
    {
      "OBJECT_NAME": "IRIDIUM 176",
      "OBJECT_ID": "2019-002B",
      "EPOCH": "2026-03-26T18:46:16.713696",
      "MEAN_MOTION": 14.72246049,
      "ECCENTRICITY": 0.00026203,
      "INCLINATION": 86.6127,
      "RA_OF_ASC_NODE": 27.9773,
      "ARG_OF_PERICENTER": 86.1631,
      "MEAN_ANOMALY": 273.9886,
      "EPHEMERIS_TYPE": 0,
      "CLASSIFICATION_TYPE": "U",
      "NORAD_CAT_ID": 43923,
      "ELEMENT_SET_NO": 999,
      "REV_AT_EPOCH": 38712,
      "BSTAR": 0.000077395364,
      "MEAN_MOTION_DOT": 0.00000513,
      "MEAN_MOTION_DDOT": 0
    },
    {
      "OBJECT_NAME": "IRIDIUM 168",
      "OBJECT_ID": "2019-002C",
      "EPOCH": "2026-03-26T20:56:27.036096",
      "MEAN_MOTION": 14.3421725,
      "ECCENTRICITY": 0.00021508,
      "INCLINATION": 86.4007,
      "RA_OF_ASC_NODE": 28.0605,
      "ARG_OF_PERICENTER": 85.0689,
      "MEAN_ANOMALY": 275.0752,
      "EPHEMERIS_TYPE": 0,
      "CLASSIFICATION_TYPE": "U",
      "NORAD_CAT_ID": 43924,
      "ELEMENT_SET_NO": 999,
      "REV_AT_EPOCH": 37717,
      "BSTAR": 0.000024388427,
      "MEAN_MOTION_DOT": 8.8e-7,
      "MEAN_MOTION_DDOT": 0
    },
    {
      "OBJECT_NAME": "IRIDIUM 173",
      "OBJECT_ID": "2019-002D",
      "EPOCH": "2026-03-26T18:57:42.959520",
      "MEAN_MOTION": 14.34217741,
      "ECCENTRICITY": 0.00020798,
      "INCLINATION": 86.4,
      "RA_OF_ASC_NODE": 27.9868,
      "ARG_OF_PERICENTER": 85.6469,
      "MEAN_ANOMALY": 274.4964,
      "EPHEMERIS_TYPE": 0,
      "CLASSIFICATION_TYPE": "U",
      "NORAD_CAT_ID": 43925,
      "ELEMENT_SET_NO": 999,
      "REV_AT_EPOCH": 37714,
      "BSTAR": 0.00010376606,
      "MEAN_MOTION_DOT": 0.0000031,
      "MEAN_MOTION_DDOT": 0
    },
    {
      "OBJECT_NAME": "IRIDIUM 169",
      "OBJECT_ID": "2019-002E",
      "EPOCH": "2026-03-26T23:13:35.064480",
      "MEAN_MOTION": 14.38607217,
      "ECCENTRICITY": 0.00017878,
      "INCLINATION": 86.4196,
      "RA_OF_ASC_NODE": 59.5554,
      "ARG_OF_PERICENTER": 103.7844,
      "MEAN_ANOMALY": 256.3553,
      "EPHEMERIS_TYPE": 0,
      "CLASSIFICATION_TYPE": "U",
      "NORAD_CAT_ID": 43926,
      "ELEMENT_SET_NO": 999,
      "REV_AT_EPOCH": 37840,
      "BSTAR": 0.00010999553,
      "MEAN_MOTION_DOT": 0.00000356,
      "MEAN_MOTION_DDOT": 0
    },
    {
      "OBJECT_NAME": "IRIDIUM 172",
      "OBJECT_ID": "2019-002F",
      "EPOCH": "2026-03-26T22:09:30.985920",
      "MEAN_MOTION": 14.34217696,
      "ECCENTRICITY": 0.00022225,
      "INCLINATION": 86.4002,
      "RA_OF_ASC_NODE": 27.939,
      "ARG_OF_PERICENTER": 81.1756,
      "MEAN_ANOMALY": 278.9691,
      "EPHEMERIS_TYPE": 0,
      "CLASSIFICATION_TYPE": "U",
      "NORAD_CAT_ID": 43927,
      "ELEMENT_SET_NO": 999,
      "REV_AT_EPOCH": 37717,
      "BSTAR": 0.000042485703,
      "MEAN_MOTION_DOT": 0.00000139,
      "MEAN_MOTION_DDOT": 0
    },
    {
      "OBJECT_NAME": "IRIDIUM 175",
      "OBJECT_ID": "2019-002G",
      "EPOCH": "2026-03-26T08:58:50.672640",
      "MEAN_MOTION": 14.43578954,
      "ECCENTRICITY": 0.00048416,
      "INCLINATION": 86.4535,
      "RA_OF_ASC_NODE": 325.1565,
      "ARG_OF_PERICENTER": 116.9741,
      "MEAN_ANOMALY": 243.1955,
      "EPHEMERIS_TYPE": 0,
      "CLASSIFICATION_TYPE": "U",
      "NORAD_CAT_ID": 43928,
      "ELEMENT_SET_NO": 999,
      "REV_AT_EPOCH": 38703,
      "BSTAR": 0.000097863393,
      "MEAN_MOTION_DOT": 0.00000351,
      "MEAN_MOTION_DDOT": 0
    },
    {
      "OBJECT_NAME": "IRIDIUM 171",
      "OBJECT_ID": "2019-002H",
      "EPOCH": "2026-03-26T21:42:06.871680",
      "MEAN_MOTION": 14.34217028,
      "ECCENTRICITY": 0.00022963,
      "INCLINATION": 86.4009,
      "RA_OF_ASC_NODE": 28.244,
      "ARG_OF_PERICENTER": 90.0414,
      "MEAN_ANOMALY": 270.1045,
      "EPHEMERIS_TYPE": 0,
      "CLASSIFICATION_TYPE": "U",
      "NORAD_CAT_ID": 43929,
      "ELEMENT_SET_NO": 999,
      "REV_AT_EPOCH": 37716,
      "BSTAR": 0.000080278283,
      "MEAN_MOTION_DOT": 0.00000245,
      "MEAN_MOTION_DDOT": 0
    },
    {
      "OBJECT_NAME": "IRIDIUM 170",
      "OBJECT_ID": "2019-002J",
      "EPOCH": "2026-03-26T22:10:55.734816",
      "MEAN_MOTION": 14.7224508,
      "ECCENTRICITY": 0.0002494,
      "INCLINATION": 86.6126,
      "RA_OF_ASC_NODE": 27.9216,
      "ARG_OF_PERICENTER": 82.6434,
      "MEAN_ANOMALY": 277.5066,
      "EPHEMERIS_TYPE": 0,
      "CLASSIFICATION_TYPE": "U",
      "NORAD_CAT_ID": 43930,
      "ELEMENT_SET_NO": 999,
      "REV_AT_EPOCH": 38715,
      "BSTAR": 0.0001726017,
      "MEAN_MOTION_DOT": 0.00001113,
      "MEAN_MOTION_DDOT": 0
    },
    {
      "OBJECT_NAME": "IRIDIUM 167",
      "OBJECT_ID": "2019-002K",
      "EPOCH": "2026-03-26T21:32:58.999776",
      "MEAN_MOTION": 14.34217406,
      "ECCENTRICITY": 0.00022493,
      "INCLINATION": 86.4007,
      "RA_OF_ASC_NODE": 27.9715,
      "ARG_OF_PERICENTER": 94.783,
      "MEAN_ANOMALY": 265.3622,
      "EPHEMERIS_TYPE": 0,
      "CLASSIFICATION_TYPE": "U",
      "NORAD_CAT_ID": 43931,
      "ELEMENT_SET_NO": 999,
      "REV_AT_EPOCH": 37716,
      "BSTAR": 0.000004440924,
      "MEAN_MOTION_DOT": 3.2e-7,
      "MEAN_MOTION_DDOT": 0
    },
    {
      "OBJECT_NAME": "IRIDIUM 181",
      "OBJECT_ID": "2023-068S",
      "EPOCH": "2026-03-26T22:49:36.978816",
      "MEAN_MOTION": 14.43311877,
      "ECCENTRICITY": 0.00025741,
      "INCLINATION": 86.4445,
      "RA_OF_ASC_NODE": 91.1751,
      "ARG_OF_PERICENTER": 85.8598,
      "MEAN_ANOMALY": 274.2897,
      "EPHEMERIS_TYPE": 0,
      "CLASSIFICATION_TYPE": "U",
      "NORAD_CAT_ID": 56726,
      "ELEMENT_SET_NO": 999,
      "REV_AT_EPOCH": 15057,
      "BSTAR": 0.000044000568,
      "MEAN_MOTION_DOT": 0.00000168,
      "MEAN_MOTION_DDOT": 0
    },
    {
      "OBJECT_NAME": "IRIDIUM 177",
      "OBJECT_ID": "2023-068T",
      "EPOCH": "2026-03-26T12:15:19.014336",
      "MEAN_MOTION": 14.80211484,
      "ECCENTRICITY": 0.00021926,
      "INCLINATION": 86.2012,
      "RA_OF_ASC_NODE": 8.0433,
      "ARG_OF_PERICENTER": 84.4998,
      "MEAN_ANOMALY": 275.6473,
      "EPHEMERIS_TYPE": 0,
      "CLASSIFICATION_TYPE": "U",
      "NORAD_CAT_ID": 56727,
      "ELEMENT_SET_NO": 999,
      "REV_AT_EPOCH": 15413,
      "BSTAR": 0.00012749048,
      "MEAN_MOTION_DOT": 0.00000995,
      "MEAN_MOTION_DDOT": 0
    },
    {
      "OBJECT_NAME": "IRIDIUM 174",
      "OBJECT_ID": "2023-068U",
      "EPOCH": "2026-03-26T21:53:06.832896",
      "MEAN_MOTION": 14.72256567,
      "ECCENTRICITY": 0.00027446,
      "INCLINATION": 86.6125,
      "RA_OF_ASC_NODE": 28.0652,
      "ARG_OF_PERICENTER": 77.4261,
      "MEAN_ANOMALY": 282.7263,
      "EPHEMERIS_TYPE": 0,
      "CLASSIFICATION_TYPE": "U",
      "NORAD_CAT_ID": 56728,
      "ELEMENT_SET_NO": 999,
      "REV_AT_EPOCH": 15391,
      "BSTAR": 0.00017583159,
      "MEAN_MOTION_DOT": 0.00001133,
      "MEAN_MOTION_DDOT": 0
    }
  ]